STARLINK-31817          
1 59731U 24090B   26068.30078418  .00000038  00000+0  10898-4 0  9993
2 59731  43.0005 185.4383 0000381 165.4918 194.5945 15.27580929103387
FLOCK 4G-29             
1 62642U 25009AK  26068.81464037  .00011147  00000+0  41831-3 0  9994
2 62642  97.4058 151.3683 0001366 288.0502  72.0588 15.27382318 63721
